[{"OBJECT_NAME":"YAOGAN-30 11B","OBJECT_ID":"2021-065C","EPOCH":"2026-03-09T16:31:48.488160","MEAN_MOTION":15.02134262,"ECCENTRICITY":9.601e-5,"INCLINATION":34.9931,"RA_OF_ASC_NODE":159.0081,"ARG_OF_PERICENTER":264.9738,"MEAN_ANOMALY":95.0861,"EPHEMERIS_TYPE":0,"CLASSIFICATION_TYPE":"U","NORAD_CAT_ID":49028,"ELEMENT_SET_NO":999,"REV_AT_EPOCH":25365,"BSTAR":0.00032720228,"MEAN_MOTION_DOT":4.364e-5,"MEAN_MOTION_DDOT":0},{"OBJECT_NAME":"STARLINK-6236","OBJECT_ID":"2023-061BA","EPOCH":"2026-03-09T08:34:44.625216","MEAN_MOTION":15.0252916,"ECCENTRICITY":0.0001573,"INCLINATION":43.0038,"RA_OF_ASC_NODE":173.3549,"ARG_OF_PERICENTER":270.0328,"MEAN_ANOMALY":90.0334,"EPHEMERIS_TYPE":0,"CLASSIFICATION_TYPE":"U","NORAD_CAT_ID":56422,"ELEMENT_SET_NO":999,"REV_AT_EPOCH":15700,"BSTAR":-2.2438933e-5,"MEAN_MOTION_DOT":-5.07e-6,"MEAN_MOTION_DDOT":0}]
