YAOGAN-30 11B           
1 49028U 21065C   26068.68875565  .00004364  00000+0  32720-3 0  9992
2 49028  34.9931 159.0081 0000960 264.9738  95.0861 15.02134262253658
STARLINK-6236           
1 56422U 23061BA  26068.35746094 -.00000507  00000+0 -22439-4 0  9998
2 56422  43.0038 173.3549 0001573 270.0328  90.0334 15.02529160157002
